id,name,street,latitude,longitude,updated_at,created_at
"Bruin Bear",,"Bruin Statue, Los Angeles, CA 90095",,34.0709621,-118.4449902
"Boelter Hall",,"580 Portola Plaza, Los Angeles, CA 90095",34.0692387,-118.4432394
"Janss Steps","UCLA Janss Steps, Los Angeles, CA 90095",34.0721839,-118.4431435
"Bruin Plaza","6 Bruin Walk, Los Angeles, CA 90095",34.0708449,-118.4447706
"Engr IV","420 Westwood Plaza, Los Angeles, CA 90095",34.0687994,-118.4440275
"Engr VI","404 Westwood Plaza, Los Angeles, CA 90095",34.0694996,-118.4445256
"Bunche Hall","11282 Portola Plaza, Los Angeles, CA 90095",34.0741507,-118.4400738
"Court of Sciences","617 Charles E Young Dr E, Los Angeles, CA 90095",34.0683494,-118.4422517
"John Wooden Center","221 Westwood Plaza, Los Angeles, CA 90095",34.0712267,-118.4457251
"Pauley Pavilion","301 Westwood Plaza, Los Angeles, CA 90095",34.0704818,-118.4468023
"Kerckhoff Hall","308 Westwood Plaza, Los Angeles, CA 90095",34.0704371,-118.4436004
"Sunset Village","330 De Neve Drive, Los Angeles, California 90095",34.0729717,-118.4510504
"Rieber Hall","Rieber Hall, UCLA, De Neve Dr, Los Angeles, CA 90024",34.0716799,-118.4514988
"Hedrick Hall","250 De Neve Dr, Los Angeles, CA 90024",34.0731836,-118.4523152
"Central Ticket Office","325 Westwood Plaza, Los Angeles, CA 9009",34.070159,-118.4456222
"Parking Structure 1","701 Gayley Ave, Los Angeles, CA 90024",34.0647715,-118.4473936
"Parking Structure 2","719 Hilgard Ave, Los Angeles, CA 90024",34.0686012,-118.4398581
"Parking Structure 3","215 Charles E Young Dr N, Los Angeles, CA 90024",34.0771341,-118.4399532
"Parking Structure 4","221 Westwood Plaza, Los Angeles, CA 90095",34.0725052,-118.4447524
"Parking Structure 5","110 Westwood Plaza, Los Angeles, CA 90095",34.0739537,-118.4430523
"Parking Structure 7","Charles E Young Dr N, Los Angeles, CA 90095",34.0730424,-118.4469012
"Parking Structure 8","405 Hilgard Ave, Los Angeles, CA 90095",34.0682512,-118.4466481
"Parking Structure 9","540 Westwood Plaza, Los Angeles, CA 90095",34.068077,-118.4438129
"Parking Structure 11",,34.0747693,-118.4537786
"Parking Structure 18","820 Westwood Pl, Los Angeles, CA 90024",34.0649793,-118.4452612
"Parking Structure 27","833 Tiverton Ave. West",34.0649793,-118.4452612
"Parking Structure 31","900 Weyburn Pl, Los Angeles, CA 90024",34.0629564,-118.4496652
"Parking Structure 32",,34.0598672,-118.4478891
"Parking Structure 36","11020 Kinross Ave, Los Angeles, CA 90024",34.0586794,-118.4473719
"Parking Structure DD","409 Charles E. Young Dr. West",34.0697325,-118.45014
"Parking Structure RC","111 Easton Dr, Los Angeles, CA 90024",34.0752346,-118.4510674
"Parking Structure SV","200 De Neve Dr, Los Angeles, CA 90024",34.0737012,-118.4497581

"Feast Dining Hall",
"Bplate Dining Hall",
"De Neve Dining Hall",
"Covel Dining Hall",
"Rendezvous",
"Cafe 1919",
"Bruin Cafe",
"De Neve Late Night",
"The Study at Hedrick",

"Rieber Hall",
"Rieber Vista",
"Rieber Terrace",
"Rieber Turnaround",
"Rieber Learning Center",
"Rieber Music Rooms",
"Rieber Study Rooms",
"Rieber Hall Fireside Lounge (FSL)",

"Hedrick Hall",
"Hedrick Court",
"Hedrick Summit",
"Hedrick Turnaround",
"Hedrick Music Rooms",
"Hedrick Study Rooms",
"Hedrick Movement Studio",

"Dykstra Hall",
"De Neve Acacia",
"De Neve Birch",
"De Neve Evergreen",
"De Neve Fir",
"De Neve Dogwood",
"De Neve Cedar",
"De Neve Holly",
"De Neve Gardenia",
"De Neve Commons",
"De Neve Plaza",
"De Neve Turnaround",
"De Neve Crosswalk",
"De Neve Auditorium",
"De Neve Learning Center",
"De Neve Meeting Rooms",
"De Neve Gayley Crosswalk",

"Hitch Residential Suites",
"Hitch Basketball Courts",

"Saxon Residential Suites",

"Sproul Hall",
"Sproul Cove",
"Sproul Landing",
"Sproul Lecture Room",
"Sproul Music Rooms",
"Sproul Study Rooms",

"Canyon Point",
"Courtside",
"Delta Terrace",
"Sunset Village",
"Sunset Village Learning Center",
"Sunset Canyon Recreation Center",
"Sunset Canyon Recreation Center Pool",
"Sunset Tennis Courts",
"Sycamore Tennis Courts",
"Spieker Aquatics Center",
"Spieker Aquatics Pool",

"Krieger Center",
"Easton Softball Stadium",
"Northwest Campus Auditorium",
"Covel Steps",
"Covel Commons",
"Carnesale Commons",
"Tom Bradley International Hall",
"Office of Residential Life",

"Westwood Palm University Apartments",
"Gayley Towers University Apartments",
"Westwood Chateau University Apartments",
"Glenrock University Apartments",
"Glenrock West University Apartments",
"Landfair University Apartments",
"Gayley Court University Apartments",
"Landfair Vista University Apartments",

"Arts Library",
"Biomedical Library (Louise M. Darling)",
"Powell Library",
"Law Library (Hugh & Hazel Darling)",
"Management Library (Eugene & Maxine Rosenfeld)",
"Music Library",
"Charles E. Young Research Library (YRL)",
"Science and Engineering Library (SEL)",
"Geology-Geophysics Library",
"Southern Regional Library Facility",
"Los Angeles Public Library",
"East Asian Library (Richard C. Rudolph)",
"Gonda Family Library",
"American Indian Studies Center Library",
"Asian American Studies Center Library",
"Chicano Studies Research Center Library",

"Court of Philanthropy",
"Court of Sciences"
"Dickson Court North"
"Dickson Court South"
"Wilson Plaza"
"Flagpole"
"Founder's Rock"
"Inverted Fountain"
"Janss Steps"
"Kinsey Science Teaching Pavilion"
"La Kretz Garden Pavilion"
"Marshall Field"
"Mildred E. Matthias Botanical Garden"
"Murphy Sculpture Garden"
"Shapiro Fountain"
"Spaulding Field"
"Sunken Gardens"
"Schoenberg Music Building",
"Anderson School of Management",
"Transfer Student Center",
"UCLA Radio Station",
"IEEE Lab",
"ACM Clubhouse",
"Counseling and Psychological Services (CAPS)",
"College Academic Counseling",
"Blackstone LaunchPad",
"Saffron & Rose Ice Cream",
"Club California Apartments",

Alpha Chi Omega
Alpha Delta Pi
Alpha Phi
Chi Omega
Delta Delta Delta
Delta Gamma
Gamma Phi Beta
Kappa Alpha Theta
Kappa Delta
Kappa Kappa Gamma
Pi Beta Phi
Fraternity and Sorority Relations Office

Alpha Epsilon Pi
Alpha Gamma Omega
Beta Theta Pi
Delta Sigma Phi
Delta Tau Delta
Lambda Chi Alpha
Phi Delta Theta
Pi Kappa Alpha
Pi Kappa Phi
Sigma Alpha Epsilon
Sigma Chi
Sigma Nu
Sigma Phi Epsilon
Sigma Pi
Theta Chi
Theta Delta Chi
Theta Xi
Triangle
Zeta Beta Tau

Ackerman Student Union  E4  308 Westwood Plaza
Ackerman Student Store  E4  308 Westwood Plaza
Acosta Training Center  D4  410 Charles E. Young Dr. West
Amphitheater B2
Anderson School of Management  E3
Collins Executive Education Center  E3  110 Westwood Plaza 
Cornell   Hall    E3  110   Westwood Plaza
Entrepreneurs Hall  E3  110 Westwood  Plaza
Korn Convocation Hall  E3  110 Westwood Plaza
Gold Hall    E3  110  Westwood  Plaza
Mullin Management Commons  E3  110 Westwood Plaza 
Rosenfeld Library  E3  110 Westwood Plaza
Ashe Student Health Center   E4   221  Westwood  Plaza
Biomedical Cyclotron   E6  780  Westwood  Plaza
Biomedical Sciences Research Bldg (BSRB)  F5  615 Charles E. Young Dr. South 
Boelter Hall (Engineering II & III)  E5  580 Portola Plaza
Botany Bldg. (La Kretz)  F5  618 Charles E. Young Dr. South
Boyer Hall  F5  611 Charles E. Young Dr. East
Bradley International Hall  C4  417 Charles E. Young Dr. West
Brain Mapping  E5  660 Charles E. Young Dr. South
Brain Research Institute (BRI)  E6  670 Charles E. Young Dr.  South
Broad Art Center  F2  240 Charles E. Young  Dr.  North
Broxton Plaza  D7  911 S. Broxton
Bunche Hall   F3  315  Portola  Plaza
Campbell   Hall   F3  335   Portola Plaza
Campus Services Bldg. I  D5  741 Charles E. Young Dr. South
Canyon Point (Sunset Village)  C3  200 DeNeve Dr.
Capital Programs Bldg.  D8  1060 Veteran Ave.
Carnesale Common  C4  251 Charles E. Young Dr. West
Center for Health Sciences  E6  10833 LeConte Ave.
CHS Plaza  E

Clinical Research  F6  700 Tiverton Ave.
CNSI Building  E5  570 Westwood Plaza
Court of Sciences Student Center  E5  617 Charles E. Young Dr. East
Courtside (Sunset Village)  C3  200 DeNeve Dr.
Covel Commons (Sunset Village)  C3  200 DeNeve Dr. CRA Modular Units  B2  101 DeNeve Dr.
David Geuen School of Medicine E6  10833 LeConte Ave.
Delta Terrace (Sunset Village)  C3  200 DeNeve Dr.
Dentistry, School of  F5  714 Tiverton Ave.

Dodd Hall  F3  390 Portola Plaza
Doris Stein Eye Research Center  E6  200 Stein Plaza
Drake Track & Field Stadium  C4  340 Charles E. Young Dr. North 
Dykstra Hall  C4  401 Charles E. Young Dr. West 
Easton Women’s Softball Field  B2  100 DeNeve Dr.
EH&S Services Bldg.  D5  550 Charles E. Young Dr. West
Emergency Department  D3  757 Westwood Plaza
Engineering IV  E5  420 Westwood Plaza
Engineering V  E5  410 Westwood Plaza
Engineering V.I  E4  404 Westwood Plaza

Facilities Management Bldg.  D5  731 Charles E. Young Dr. South
Factor Health Sciences Bldg.  F5  700 Tiverton Ave.
Faculty Center  F4  480 Charles E. Young Dr. East
Faculty Apartments-Gayley  C6  715 Gayley Ave.
Faculty Apartments-Levering  C7  827 Levering Ave.
Fernald Center  E2  320 Charles E. Young Dr. North
Fielding School of Public Health  E5  640 Charles E. Young Dr. South 
Fire Station  C8  1090 Veteran Ave.
Fleet Services/Garage  D5  751 Charles E. Young Dr. South
Fowler Museum (Cultural History)  E3  308 Charles E. Young Dr. North 
Franz Hall  F4  502 Portola Plaza
Gayley Towers  C5  565 Gayley Ave.
Geuen Academy  D8  11000 Kinross Ave.
Geuen Hall  F6  885 Tiverton Dr.
Geffen Playhouse  10886 LeConte Ave.


Geology Bldg.  F5  595 Charles E. Young Dr. East
Glenrock Apartments   C5  558  Glenrock Ave.
Glenrock   West   C5   555   Glenrock Ave.
Goldberg Medical Building  D6  300 Medical Plaza
Gonda (Goldschmeid) Center  E5  695 Charles E. Young Dr. South 
Graduate School of Education & Information Studies (GSE&IS)  E3  290 Charles E. Young Dr. North 

Haines Hall  F3  375 Portola Plaza
Hammer Museum  E8  10889 Wilshire Blvd.
Hedrick Hall    B3  250  DeNeve Dr.
Hedrick Summit  B3  240 DeNeve Dr.
Hershey Hall  F5  612 Charles E. Young Dr. East
Hillblom Islet Research Center  C7  900 Weyburn Place North
720 Hilgard Apartments  G5  720 Hilgard Ave.
824 Hilgard Apartments  F6  824 Hilgard Ave.
Hilgard Bus Terminal  G4  403 Hilgard Ave.
Hitch Residential  Suites  B3  245  DeNeve Dr.
Intramural Field (IM)  D4
Jules Stein Eye Institute  E6  100 Stein Plaza

Renee And David Kaplan Hall (Humanities)  F4  415 Portola Plaza
Kaufman Hall  E3  120 Westwood Plaza
Kerckhoff Hall  E4  308 Westwood Plaza
Kinross Recreation Center  D8  11100 Kinross Ave.
Kinross South  D8  11020 Kinross Ave.
Knudsen Hall  F4  475 Portola Plaza
Krieger Child Care Center  A2  101 Bellagio Dr.

La Kretz Hall  E5  619 Charles E. Young Dr. East
Law, School of  G3  385 Charles E. Young Dr. East
Landfair Apartments  C5  625 Landfair Ave.
Landfair   Vista    C5  510   Landfair Ave.
Life Sciences Bldg  E5  621 Charles E. Young Dr. South
Los Angeles Tennis Center (Straus Stadium)  D4  420 Charles E. Young Dr. West 
Luskin Conference Center D4  425 Westwood Plaza
Luskin School of Public Affairs  F3  337 Charles E. Young Dr. East
Lu Valle Commons  398 Portola Plaza

MacDonald Medical Research Labs (MRL  E5  675 Charles E. Young Dr. South 
MacGowan Hall  F2  245 Charles E. Young Dr. East
MacGowan East  F2  243 Charles E. Young Dr.   East
Manoukian Medical Building  D6  100 Medical Plaza
Margan Apartments  C7  885  Levering Ave.
Marion Davies Children’s Center  E6  805 Tiverton  Ave.
Mathematical Sciences Bldg (Math and Sciences)  E4  520 Portola Plaza
Mattel Children’s Hospital  D6  757 Westwood Plaza 
Melnitz Hall  F2  235 Charles E. Young Dr. East
Melnitz East  F2  235 Charles E. Young Dr. East
Mo Ostin Basketball Center  D4  440 Charles E. Young Dr. West

Molecular Sciences Bldg.  F5  609 Charles E. Young Dr. East
Moore Hall   E4  457  Portola  Plaza
Morgan Intercollegiate Athletics Center  D4  301½ Westwood Plaza 
Morton Medical Bldg (MP200)  D6  200 Medical Plaza
Murphy Hall  F4  410 Charles E. Young Dr. East
Neuroscience Research Bldg.  E5  635 Charles E. Young  Dr.  South
North Campus Student Center  E3  295 Charles E. Young Dr. North
Northwest Campus Auditorium  C4  200 DeNeve Dr.
Occupational Health Facility  E6  67-120 Center for Health Sciences
Ornamental Horticulture Bldg. “J”  B3  267 DeNeve Dr.
Ornamental Horticulture Bldg. “M  B3  265 DeNeve Dr.
Orthopaedic Hospital Research Center (OHRC)  F5  615 Charles E. Young Dr., South 
Oppenheimer Tower  E8  10880 Wilshire Blvd.
Ostin Music Center  F4  445 Charles E. Young Dr. East

Pauley Pavilion  D4  301 Westwood Plaza
Perloff Hall  F3  365 Portola Plaza 
Physics & Astronomy Bldg. (PAB)  F4  430 Portola Plaza
Plant Growth Center  F5  614 Charles E. Young Dr. South
Police Station  D5  601 Westwood Plaza
Portola Plaza Building  F4  460 Portola Plaza
Powell Library  E4  10740 Dickson Plaza

Reed Neurological Research Center  E6  710 Westwood Plaza Rehabilitation Center  C8  1000 Veteran Ave.
Resnick Neuropsychiatric Hospital  D6  150 UCLA Medical Plaza 
Rieber Hall  C4  310 DeNeve Dr.
Rieber Terrace    B3  270  DeNeve Dr.
Rieber Vista   B4  280  DeNeve Dr.
Rolfe Hall  E3  345 Portola Plaza
Ronald Reagan UCLA Medical Center  D6  757 Westwood Plaza 
Royce Hall  E3  10745 Dickson Plaza

Saxon Residential Suites  B4  325 DeNeve Dr.
Schoenberg Music Bldg.  F4  445 Charles E. Young Dr. East
Science & Technology Research Bldg. (STRB)  C8  1040 Veteran Ave. 
Semel Institute  E6  760 Westwood Plaza
Slichter Hall  F5  603 Charles E. Young Dr. East
Southern Regional Library Facility (SRLF)  B4  305 DeNeve Dr. 
Spieker Aquatics Center  C3  114 Easton Dr.
Sproul Cove and Sproul Landing  C4  330 & 380 DeNeve Dr. 
Sproul Hall  C3  350 DeNeve Dr.
Strathmore Building  E5  501 - 555 Westwood Plaza
Student Activities Center (SAC)  E4  220 Westwood Plaza
Sunset Canyon Recreation Center  C3  111 Easton Dr.

Terasaki Life Sciences Building  F5  610 Charles E. Young Dr. East
Tiverton Patient Family Guest House  E7  900 Tiverton Ave.
Transit Operations Maintenance Yard  C8  11075 Kinross Ave.
UCLA Extension (UNEX) Admin  D8  10960 Wilshire Blvd. 16/17th Floor
UCLA Extension Lindbrook Center D8  10920 Lindbrook Dr.
UCLA Extension Gayley Center  D8  1145 Gayley Ave.
UCLA Guest House  G3  330 Charles E. Young Dr. East 
UCLA Lab School (formerly UES)  E2  305 Sycamore Court
UCLA Westwood Center  E7  924 Westwood Blvd.
Ueberroth Bldg.  D6  10945 LeConte Ave.
University Residence  F2  10570 Sunset Blvd.
Village Terrace Appartments  C7  919-923 Levering Ave.

Wallis Annenberg Stadium  D3
Warren Hall  C7  900 Weyburn Place North
Wasserman Building  E6  300 Stein Plaza
Wasserman Football Center  D4  430 Charles E. Young Dr. West
James West Alumni Center  D4  325 Westwood Plaza
West Medical Bldg.  D8  1010 Veteran Ave.
West Medical Steam Plant  D8  1021 Weyburn Place South
Westwood Chateau Apts  C4  456 Landfair Ave.
Westwood Palm Apts  C4  475 Gayley Ave.
Weyburn Apts.  D7  10845-55 Weyburn Ave.
Weyburn Terrace Housing Complex  C7
Aloe   Court   C7   740  Weyburn Terrace
Cypress Court  B7  725 Weyburn Terrace
Jacaranda Court  C7  785 Weyburn Terrace
Magnolia Court  C7  765 Weyburn Terrace
Olive   Court  C7   825   Weyburn Terrace
Palm   Court   C7   945  Weyburn Terrace
Sycamore Court  C7  925 Weyburn Terrace
Weyburn Graduate Student Housing  C7  1020 Weyburn Drive 

Wilshire Center  E9  10920 Wilshire Blvd.
Wooden Recreation and Sports Center  D4  221 Westwood Plaza
Young Hall  F5  607 Charles E. Young Dr. East 
Young Research Library (YRL)  F2  280 Charles E. Young Dr. North
700 Westwood Plaza  E5  700 Westwood Plaza




American
--------
The Hideout
Barney’s Beanery
BBQ Chicken
BJ’s Restaurant & Brewhouse
California Pizza Kitchen
Chick-fil-A
Corner Bakery Café
D’Amore’s Pizza
Denny’s
Enzo’s Pizzeria
Fat Sal’s Deli
Fatburger
Headlines Diner
Ike’s Place Sandwich Shop
In-N-Out
Jersey Mike’s
Lamonica’s NY Pizza
Napa Valley Grille
Noah’s Bagels
SEPI'S Westwood
Simplethings Restaurant
Skylight Gardens
Subway
Tender Greens
The Boiling Crab
Hangry Moons
Trimana Grill UCLA Wilshire Center
Westwood Pizzeria
Rocco’s Tavern
SpireWorks: Döner American Style
Seventy7 West
Fellow Los Angeles
Atrium at Center West
Broxton
Comoncy

Living Room Bar
Audrey at the Hammer
Cravings Grill
Asian
---
Ami Japanese Restaurant & Sushi Bar
First Szechuan Wok
Flame Broiler
Gushi Korean BBQ & Teriyaki
KazuNori Sushi Westwood
Mr. Noodle
Northern Cafe Dumpling House
Meat Your Seoul
Onkei Ramen & Sushi
Poke Bar
San Sai Japanese Grill
Tomodachi Sushi
NUSHII: Sushi Burritos & Bowls
Sweetfin Poke
BIBIBOP Asian Grill
Lollicup Fresh
Kopan Ramen
Kaido Japanese Cuisine

Bars & Nightlife
---
The Hideout
Barney’s Beanery
Frida Mexican Cuisine
Napa Valley Grille
SEPI'S Westwood
Skylight Gardens
STK Los Angeles
The Tuck Room Tavern
Rocco’s Tavern
Seventy7 West
Fellow Los Angeles
Broxton
Living Room Bar

Coffee & Juice
---
It's Boba Time
CoCo Fresh Tea & Juice
Coffee Bean & Tea Leaf
Espresso Profeta
Northern Cafe
Nekter Juice Bar
Peet’s Coffee & Tea
Pressed Juicery
Starbucks Coffee Weyburn Ave
Starbucks Coffee Westwood Blvd
Lollicup Fresh
Ministry of Coffee Los Angeles
Atrium at Center West
Sip Matcha
Comoncy
Upside Down

Dental Offices
---
Angeleno Smile
ASK Dental Group
Glamorous Smiles
Zakhor Dental Group
Westwood Orthodontics

Fitness
---
CorePower Yoga
GNC
Equinox
LA Fitness
The Yoga Court
Lagree Fitness

French
---
Elysee Bakery & Café
Le Pain Quotidien

Grocery & Homegoods
---
7-Eleven

Happy Hour
---
Ami Japanese Restaurant & Sushi Bar
Rocco’s Tavern
Seventy7 West

Holistic Medicine
---
GNC
Westwood Healing Center
The Farmacy
Daniel Acupuncture and Herbalism Westwood

Indian
---
Bollywood Bites

Italian
---
California Pizza Kitchen
D’Amore’s Pizza
Enzo’s Pizzeria
House of Meatballs
Italian Express
Lamonica’s NY Pizza
Skylight Gardens
Tanino Ristoronte Bar
Westwood Pizzeria
Rocco’s Tavern

Latin American
---
Chipotle
El Pollo Loco
Frida Mexican Cuisine
Pinches Tacos Westwood
Taco Bell
TLT Food
Tocaya Organica Westwood Village

Medical Services
---
California Varicose Vein & Vascular
UCLA Blood & Platelet Center
University Vascular Associates
Terasaki Research Institute

Mediterranean
---
Bella Pita
CAVA
Falafel King
Gypsy Café
Habibi Café
Crazy Falafel
SpireWorks: Döner American Style
Grilliant Westwood Village
Cravings Grill

Movie Theatres
---
Bruin Movie Theater
iPic Movie Theater
Fox Village Movie Theater
Italian Cultural Institute
Landmark Regent Movie Theater

Museums
---
Italian Cultural Institute
Hammer Museum
Taiwan Academy
Upside Down

Optical & Eyewear
---
Dr. LM Philips Optometrist’s
Eyes Of Westwood
Village Eyes Optometry
Westwood Optometric Center
Dr Martin Hyman Optometrist

Other Services
---
CVS
Amazon @ Westwood

Performing Arts
---
Italian Cultural Institute
Geffen Playhouse
Taiwan Academy
The Improv Space

Pharmacy & Drug
---
GNC
CVS
Westwood Center Pharmacy
The Farmacy
Rite Aid
Ralphs Fresh Fare
City Target Westwood

Salon & Beauty
---
Capelli Lounge
Dtox Foot Massage
European Wax Center
Fama Beauty Center
Freddy & Liana’s
Sigal Gevojanyan Salon
Goddess Lynne BODY and SKIN
Hair By Shawn
Henri Salon De Beaute
InStyle Nails & Spa
Jersi Salon
Joanne Harris Salon
Kami Hairstyling
Kut & Style
La Belle Hair & Skin
Mark Slicker Salon
Hair By Annalisa
My Salon: Michael Brewer
Oakley’s Barber Shop
Parvaneh Salon
Patio Nail Spa
Phenix Salon Suites
Salon Ash
Sheveux Salon
Sontre Nail Spa Skin Care
Studio One Eleven
The Bees Knees Studio
The Tanning Boutique
Massage Envy
Golden System Beauty Center
Black Stag Barbershop
The Sweetest Lash
ULTA Beauty

Treats
---
Elysee Bakery & Café
Diddy Riese Cookies
Le Pain Quotidien
Simplethings Restaurant
Stan’s Donuts
Yogurtland
Lollicup Fresh
7-Eleven
Sip Matcha

Vegetarian
---
Native Foods Café
Veggie Grill
Broxton

Clothing & Footwear
---
Brandy Melville
American Vintage
Francesca’s
Scrubs Unlimited
Sports Rush
UCLA Campus Store
Urban Outfitters Men and Women
Victoria’s Secret
LF Outlet
City Target Westwood
Footaction

Flowers & Gifts
---
Aahs! Gift Store
Urban Outfitters Men and Women
Flax Pen to Paper
Westwood Flower Garden
Paper Source
Little Branch Vintage
Rocket Fizz
City Target Westwood
MAC
Heather Taylor Home

Grocery & Homegoods
---
AxelBloom Beds & Sofas
Ralphs Fresh Fare
Sur La Table
Trader Joe’s
Whole Foods Market
City Target Westwood
Heather Taylor Home

Jewelry
---
Michael K. Jewelers
Morgan & Company Jewellers
Muriel Chastanet Fine Jewelry
Sarah Leonard Fine Jewelers

Tobacco Shops
---
The Vape Lounge
Smoke Spot

Wireless Communications
---
AT&T Wireless
Cell Tech
Image Wireless
Group Mirco Computers
T-Mobile
Verizon
Westwood Wireless

Banks
---
Bank of America Westwood Blvd
Bank of America Wilshire Blvd
Chase Bank
Citibank Wilshire Blvd
Citibank Westwood Blvd
City National Bank
Comerica Bank
Union Bank
US Bank
Wells Fargo Wilshire
Wells Fargo Le Conte
First Foundation Bank

Copy & Printing
---
Copymat
FedEx Office
The UPS Store
Westwood Copies Inc.
LA Imprints
US Post Office Village Station

Educational
---
Aveda Institute
Blueprint LSAT Preparation
Course Reader Material
Kaplan Educational Center
Solutions in LA Housing
Swartwood Prep
The Berkeley Review
The Princeton Review
Westwood Branch Library
Mentor Language Institute
Tutor Me LA
Bedford Corporate Housing
Westwood Driving School

Lodging
---
Gayley + Lindbrook Apartments
Solutions in LA Housing
Hilgard House
The Glendon at Westwood Village Apartments
UCLA Tiverton House
W Hotel Los Angeles – West Beverly Hills
Plaza la Reina Hotel & Residence
UCLA Meyer & Renee Luskin Conference Center
Rex Housing
Bedford Corporate Housing
Palihotel Westwood Village

Other Services
---
Campus Shoe Repair
Rite Aid
Chevron Gas
Float Lab
Gary’s Custom Tailoring
Group Micro
LAX FlyAway Bus
Tower Cleaners
Westwood Village Ambassadors
Westwood Driving School

Religious
---
Christian Science Reading Room
Jews for Jesus
Westwood Village Synagogue
Westwood Hills Christian Church
